QIANFAN-65              
1 62795U 25016L   25206.52574562  .00000146  00000+0  20678-3 0  9990
2 62795  88.9839 117.5405 0015690  34.6434 325.5736 13.50958284 28314
QIANFAN-66              
1 62796U 25016M   25206.48034249  .00000138  00000+0  19463-3 0  9990
2 62796  88.9858 117.4877 0016700  30.3854 329.8262 13.50960475 28350
QIANFAN-67              
1 62797U 25016N   25206.48460933  .00000143  00000+0  20302-3 0  9994
2 62797  88.9848 117.5267 0016852  36.5588 323.6710 13.50962018 28326
QIANFAN-68              
1 62798U 25016P   25206.48864563  .00000142  00000+0  20095-3 0  9990
2 62798  88.9852 117.5694 0017434  34.8081 325.4206 13.50959443 28308
QIANFAN-69              
1 62799U 25016Q   25206.49269341  .00000141  00000+0  19996-3 0  9992
2 62799  88.9831 117.4656 0017628  35.6760 324.5566 13.50960362 28346
QIANFAN-70              
1 62800U 25016R   25206.50923630  .00000128  00000+0  17889-3 0  9999
2 62800  88.9852 117.5725 0016952  27.0961 333.1071 13.50958844 28302
QIANFAN-71              
1 62801U 25016S   25206.50520264  .00000129  00000+0  18170-3 0  9991
2 62801  88.9846 117.5611 0017625  38.8145 321.4269 13.50958733 28308
QIANFAN-72              
1 62802U 25016T   25206.50093801  .00000135  00000+0  19077-3 0  9998
2 62802  88.9836 117.5838 0021169  43.9048 316.3781 13.50960401 28291
